[{"OBJECT_NAME":"HORS 1","OBJECT_ID":"2023-091Y","EPOCH":"2026-03-09T22:53:40.941312","MEAN_MOTION":15.24891371,"ECCENTRICITY":0.00107483,"INCLINATION":97.5184,"RA_OF_ASC_NODE":132.0743,"ARG_OF_PERICENTER":84.6669,"MEAN_ANOMALY":275.5794,"EPHEMERIS_TYPE":0,"CLASSIFICATION_TYPE":"U","NORAD_CAT_ID":57188,"ELEMENT_SET_NO":999,"REV_AT_EPOCH":14918,"BSTAR":0.00046916276,"MEAN_MOTION_DOT":0.00011622,"MEAN_MOTION_DDOT":0},{"OBJECT_NAME":"STARLINK-30248","OBJECT_ID":"2023-119J","EPOCH":"2026-03-09T22:00:01.999584","MEAN_MOTION":15.18370424,"ECCENTRICITY":0.00011143,"INCLINATION":43.0002,"RA_OF_ASC_NODE":79.6115,"ARG_OF_PERICENTER":259.9971,"MEAN_ANOMALY":294.0956,"EPHEMERIS_TYPE":0,"CLASSIFICATION_TYPE":"U","NORAD_CAT_ID":57610,"ELEMENT_SET_NO":999,"REV_AT_EPOCH":578,"BSTAR":0.052691671,"MEAN_MOTION_DOT":0.01203938,"MEAN_MOTION_DDOT":0}]
